GLOBALSTAR M001 [-]     
1 25162U 98008A   23283.85507229 -.00000055  00000+0  31628-3 0  9990
2 25162  52.0045 324.1316 0001705  43.2984 127.5850 12.38168376167486
GLOBALSTAR M004 [-]     
1 25163U 98008B   23283.88534964 -.00000033  00000+0  38974-3 0  9997
2 25163  51.9970 131.2109 0003361  20.0138  81.9319 12.63339878183917
GLOBALSTAR M002 [-]     
1 25164U 98008C   23283.67945540 -.00000036  00000+0  80368-3 0  9998
2 25164  52.0044 343.4696 0001690 100.2300 259.8711 11.61495734112549
GLOBALSTAR M003 [-]     
1 25165U 98008D   23283.84160127  .00000035  00000+0  13327-2 0  9996
2 25165  51.9754  72.9020 0008588 132.6401  19.4832 12.11943199158605
GLOBALSTAR M015 [-]     
1 25308U 98023C   23283.67974597  .00000023  00000+0  22103-2 0  9996
2 25308  51.9857  19.3676 0012865  64.2790  88.4385 11.48852597123335
